[{"OBJECT_NAME":"SAUDISAT 5A","OBJECT_ID":"2018-102A","EPOCH":"2026-03-09T23:40:00.596928","MEAN_MOTION":15.26941021,"ECCENTRICITY":0.00113651,"INCLINATION":97.3185,"RA_OF_ASC_NODE":132.4981,"ARG_OF_PERICENTER":121.7113,"MEAN_ANOMALY":238.5235,"EPHEMERIS_TYPE":0,"CLASSIFICATION_TYPE":"U","NORAD_CAT_ID":43831,"ELEMENT_SET_NO":999,"REV_AT_EPOCH":40053,"BSTAR":0.00030305233,"MEAN_MOTION_DOT":7.96e-5,"MEAN_MOTION_DDOT":0},{"OBJECT_NAME":"STARLINK-31970","OBJECT_ID":"2024-106G","EPOCH":"2026-03-09T02:39:02.417760","MEAN_MOTION":15.27580902,"ECCENTRICITY":0.00011668,"INCLINATION":43.0032,"RA_OF_ASC_NODE":335.8462,"ARG_OF_PERICENTER":262.4083,"MEAN_ANOMALY":97.6636,"EPHEMERIS_TYPE":0,"CLASSIFICATION_TYPE":"U","NORAD_CAT_ID":59928,"ELEMENT_SET_NO":999,"REV_AT_EPOCH":10048,"BSTAR":-6.2900407e-5,"MEAN_MOTION_DOT":-1.993e-5,"MEAN_MOTION_DDOT":0}]
